Place_ID,Facility_Name,Facility_Group,Facility_Type,Address,Latitude,Longitude,Geometry
HLT001,Aperion Care Monroe,Healthcare,Nursing Home,"120 E Miller Drive, Bloomington, In 47401",39.146971,-86.526732,POINT (-86.52673161262301 39.14697075345173)
HLT002,IU Health Bloomington Hospital,Healthcare,Hospital,"2651 E Discovery Parkway, Bloomington, In 47408",39.177344,-86.503527,POINT (-86.50352701223837 39.17734385)
HLT003,Brickyard Healthcare - Bloomington Care Center,Healthcare,Nursing Home,"155 E Burks Drive, Bloomington, In 47401",39.126748,-86.529235,POINT (-86.5292347818554 39.1267477323763)
HLT004,Bloomington Regional Rehabilitation Hospital,Healthcare,Specialized Hospital,"3050 N Lintel Drive, Bloomington, In 47404",39.25007,-86.580849,POINT (-86.580849 39.25007)
HLT005,Majestic Care of Bloomington,Healthcare,Nursing Home,"1100 S Curry Pike, Bloomington, In 47403",39.149369,-86.582556,POINT (-86.58255630702538 39.149369323991316)
HLT006,Indiana University Student Health Center,Healthcare,Medical Center,"600 N Eagleson Avenue, Bloomington, In 47405",39.172119,-86.515183,POINT (-86.51518279610724 39.17211865)
HLT007,Bloomington Meadows Hospital,Healthcare,Mental Health Clinic,"3600 N Prow Road, Bloomington, In 47404",39.206053,-86.550987,POINT (-86.55098737289987 39.20605315)
HLT008,Stonecroft Health Campus,Healthcare,Assisted Living Facility,"363 S Fieldstone Boulevard, Bloomington, In 47403",39.16487,-86.605339,POINT (-86.605339 39.16487)
HLT009,HealthNet Bloomington Health Center,Healthcare,Medical Clinic,"811 W 2Nd Street, Bloomington, In 47403",39.161343,-86.542479,POINT (-86.54247940838711 39.16134305544695)
HLT011,Bell Trace Health & Living,Healthcare,Assisted Living Facility,"725 Bell Trace Circle, Bloomington, In 47408",39.168997,-86.488894,POINT (-86.4888937 39.1689974)
HLT012,IU Health Primary Care - Landmark,Healthcare,Medical Clinic,"550 S Landmark Avenue, Bloomington, In 47403",39.160693,-86.55504,POINT (-86.5550396 39.1606926)
HLT013,IU Health Urgent Care - Bloomington,Healthcare,Urgent Care Center,"326 S Woodscrest Drive, Bloomington, In 47401",39.163848,-86.502555,POINT (-86.50255477096619 39.16384763118611)
HLT014,IU Health Primary Care - Liberty,Healthcare,Medical Clinic,"1520 Liberty Drive, Bloomington, In 47403",39.147347,-86.577085,POINT (-86.577085 39.147347)
HLT015,Monroe Hospital,Healthcare,Hospital,"4011 S Monroe Medical Park Boulevard, Bloomington, In 47403",39.120358,-86.57181,POINT (-86.57181037497892 39.1203582)
HLT016,Activate by Everside Health,Healthcare,Medical Clinic,"119 W 7Th Street #264, Bloomington, In 47404",39.168632,-86.544156,POINT (-86.5441565 39.168632)
HLT018,The Cook Family Health Center,Healthcare,Medical Center,"402 N Rogers Street, Bloomington, In 47404",39.169831,-86.538311,POINT (-86.53831054245512 39.1698314)
HLT019,Bloomington Hospital Home Health,Healthcare,Home Health Care Service,"333 E Miller Drive, Bloomington, In 47401",39.14699,-86.529986,POINT (-86.52998628059434 39.146989899331416)
PRK001,Building Trades Park Playground,Parks,Playground,"619 W Howe Street, Bloomington, In",39.162207,-86.540408,POINT (-86.540414866514 39.162214528918)
PRK002,Upper Cascades Skate Park Trail Head N End,Parks,Trailhead,"N Of Upper Cascades Skate Park, Bloomington, In",39.194193,-86.535729,POINT (-86.535733706612 39.194200257505)
PRK003,Griffy Lake South Shore Trail North Trail End,Parks,Trailhead,"End Of South Shore Trail Near Shorelinein Griffy Woods Natur, Bloomington, In",39.198461,-86.516543,POINT (-86.516547725999 39.19846842229)
PRK004,John Waldron Arts Center,Parks,Arts Center/Gallery,"122 S Walnut Street, Bloomington, In",39.165732,-86.533868,POINT (-86.533873597119 39.165739367884)
PRK005,Griffy Lake South Shore Trail Sassafras CIR Trail,Parks,Trailhead,"E Sassafras Circle In Meadwood, Bloomington, In",39.192863,-86.519435,POINT (-86.51943999483 39.192870570358)
PRK006,Insomnia Cookies,Parks,Bakery,"430 E Kirkwood Avenue, Bloomington, In",39.166324,-86.528496,POINT (-86.528501014158 39.166331661954)
PRK007,Butler Park Ninth Street Loop Fairview Trail Head,Parks,Trailhead,"N Fairview Street North Of W 9Th Street And Park Parking Lot, Bloomington, In",39.171351,-86.541165,POINT (-86.541169923879 39.17135800188)
PRK008,Upper Cascades Skate Park Trail Head S End,Parks,Trailhead,"West Side Of Upper Cascades Skate Park, Bloomington, In",39.192131,-86.537473,POINT (-86.53747853473 39.192138304634)
PRK009,Lower Cascades Park Playground,Parks,Playground,"2851 N Old State Road 37, Bloomington, In",39.196251,-86.535839,POINT (-86.535844762592 39.19625719138)
PRK010,Clear Creek Trail South Trail Head,Parks,Trailhead,"West Of Intersection Of W Church Lane And S Rogers Street, Bloomington, In",39.107451,-86.543713,POINT (-86.543717816639 39.107458456973)
PRK011,Lower Cascades Park South Trail Head,Parks,Trailhead,"Lower Cascades Park Waterfall Shelter, Bloomington, In",39.194904,-86.536249,POINT (-86.536253913676 39.194911051839)
PRK012,Bloomington Rail Trail South Trail Head,Parks,Trailhead,"900 Ft North Of W Church Lane Clear Creek Trail Parking Lot, Bloomington, In",39.109703,-86.542624,POINT (-86.542629318822 39.109710283719)
PRK013,Schmalz Farm Park,Parks,Neighborhood Park,"3010 E Daniel Street, Bloomington, In",39.137063,-86.491814,POINT (-86.491833408794 39.137056625681)
PRK014,Griffy Lake Boathouse,Parks,Recreation Center,"3400 N Headley Road, Bloomington, In",39.198318,-86.513142,POINT (-86.513147381654 39.198325535134)
PRK015,Lower Cascades Ballfields,Parks,Sports Park,"3601 N Old State Road 37, Bloomington, In",39.202049,-86.535883,POINT (-86.535965427181 39.202078304397)
PRK016,Tuesday Farmers Market Location,Parks,Farmers Market,"At The Pavilion In Switchyard Park, Bloomington, In",39.146914,-86.536791,POINT (-86.536795983985 39.146921722587)
PRK017,Rev Ernest D Butler Park Playground,Parks,Playground,"812 W 9Th Street, Bloomington, In",39.171052,-86.541694,POINT (-86.541701297897 39.171058462527)
PRK018,Waldron Hill Buskirk Park,Parks,Community Park,"331 S Washington Street, Bloomington, In",39.163674,-86.531807,POINT (-86.531809145937 39.163637501123)
PRK019,Twin Lakes Trail Southern Trail Head,Parks,Trailhead,"N Of W Bloomfield Road Around Twin Lakes, Bloomington, In",39.154335,-86.566152,POINT (-86.566157599214 39.154342026637)
PRK020,Peoples Park,Parks,Community Park,"501 E Kirkwood Avenue, Bloomington, In",39.16678,-86.528009,POINT (-86.528000217561 39.166776802069)
PRK021,Park Ridge East Park,Parks,Neighborhood Park,"4421 E Morningside Drive, Bloomington, In",39.167584,-86.47452,POINT (-86.474524781115 39.167591444489)
PRK022,Clear Creek Trail North Trail Head,Parks,Trailhead,"Parking Lot On W Tapp Road E Of S Weimer Road, Bloomington, In",39.136406,-86.56126,POINT (-86.561265040788 39.136413614709)
PRK023,Crestmont Park,Parks,Neighborhood Park,"1209 W 15Th Street, Bloomington, In",39.175613,-86.549869,POINT (-86.549874526122 39.175620838703)
PRK024,Southeast Park,Parks,Neighborhood Park,"1600 S Sycamore Court, Bloomington, In",39.14889,-86.504314,POINT (-86.504318764366 39.148897787472)
PRK025,B-Line Trail South Trail Head,Parks,Trailhead,"W Country Club Drive Between S Madison Street And S Walnut Street, Bloomington, In",39.136063,-86.534864,POINT (-86.53486928338 39.136070008077)
PRK026,Sherwood Oaks Park Playground,Parks,Playground,"1600 E Elliston Drive, Bloomington, In",39.129625,-86.513503,POINT (-86.513511363692 39.129630776759)
PRK027,Clear Creek Trail,Parks,Multi-use Trail,"Rus From W Tapp Road To W Church Lane, Bloomington, In",39.12514,-86.55675,POINT (-86.556755310391 39.125147453357)
PRK028,B-Line Trail,Parks,Multi-use Trail,"350 W 7Th Street, Bloomington, In",39.168674,-86.537048,POINT (-86.537120080061 39.168706102128)
PRK029,Cascade Trail  East Trail Head,Parks,Trailhead,"E Stone Mill Road At N Old State Road 37, Bloomington, In",39.207926,-86.532163,POINT (-86.532168653058 39.207933110704)
PRK030,RCA Community Park,Parks,Community Park,"1400 W Rca Park Drive, Bloomington, In",39.145133,-86.546485,POINT (-86.54649066483 39.145140562643)
PRK031,Building Trades Park,Parks,Neighborhood Park,"619 W Howe Street, Bloomington, In",39.162269,-86.540628,POINT (-86.540696571373 39.162270752037)
PRK032,Seminary Square Plaza,Parks,Park Plaza Area,"West Side Of The W 2Nd Street Kroger Grocery Store On B-Line Tra, Bloomington, In",39.160194,-86.536193,POINT (-86.536198398859 39.16020153292)
PRK033,Winslow Sports Complex,Parks,Sports Park,"2801 S Highland Avenue, Bloomington, In",39.137837,-86.51607,POINT (-86.515403313299 39.138096364739)
PRK034,Polly Grimshaw Trail East Trail Head,Parks,Trailhead,"At E Longview Avenue And Glenwood Avenue W, Bloomington, In",39.167989,-86.490172,POINT (-86.490177639044 39.16799614438)
PRK035,Realtors Plaza,Parks,Park Plaza Area,"South Side Of 3Rd Street Bridge On The B-Line Trail, Bloomington, In",39.164466,-86.536199,POINT (-86.536204098449 39.16447364879)
PRK036,Griffy Lake Nature Preserve,Parks,Nature Park/Preserve,"3400 N Headley Road, Bloomington, In",39.199569,-86.510073,POINT (-86.510077992428 39.199576166561)
PRK037,Bloomington Rail Trail,Parks,Multi-use Trail,"Connects B-Line Trail At County Club Drive To Clear Creek Trail, Bloomington, In",39.119865,-86.538645,POINT (-86.538649910838 39.119872372996)
PRK038,Griffy Creek Trail East Trail Head,Parks,Trailhead,"East End Of Griffy Creek Trail On The East Side Of Griffy La, Bloomington, In",39.204914,-86.48652,POINT (-86.486525364626 39.204921511505)
PRK039,Sherwood Oaks Park,Parks,Neighborhood Park,"1600 E Elliston Drive, Bloomington, In",39.129445,-86.513553,POINT (-86.514220595866 39.129107092094)
PRK040,Leonard Springs Nature Park,Parks,Nature Park/Preserve,"4685 S Leonard Springs Road, Bloomington, In",39.116803,-86.592191,POINT (-86.591452899133 39.11924502224)
PRK041,Griffy Creek Trail Griffy Lake Trail Head,Parks,Trailhead,"East End Of The Griffy Lake Boathouse Parking Lot, Bloomington, In",39.197789,-86.511654,POINT (-86.511659104568 39.197796589684)
PRK042,Rev Ernest D Butler Park Southern Trail Head,Parks,Trailhead,"At W 9Th Street Across From N William Street, Bloomington, In",39.170523,-86.543203,POINT (-86.543207910223 39.170530071596)
PRK043,Showers Commons,Parks,Park Plaza Area,"In Front Of Showers City Hall, Bloomington, In",39.169549,-86.536361,POINT (-86.53636576098 39.169556431731)
PRK044,Lower Cascades Park,Parks,Community Park,"2851 N Old State Road 37, Bloomington, In",39.197182,-86.537293,POINT (-86.537169336951 39.197441245216)
PRK045,Browns Woods,Parks,Nature Park/Preserve,"S Basswood Drive Behind Canterbury Apartments, Bloomington, In",39.159034,-86.571556,POINT (-86.571561151248 39.159041576411)
PRK046,Olcott Park Shelter,Parks,Park Shelter,"401 N. Morton Street. Ste. 250, Bloomington, In 47408",39.125686,-86.511446,POINT (-86.51145284149 39.12569178156)
PRK047,Clear Creek Trail Access Highlands,Parks,Trailhead,"Western End Of W Gordon Pike, Bloomington, In",39.121964,-86.553256,POINT (-86.553261293989 39.121971457056)
PRK048,Jackson Creek Trail North Trail Head,Parks,Trailhead,"East Side Of  The S High Street And E Rogers Road Roundabout, Bloomington, In",39.136341,-86.507674,POINT (-86.507679056717 39.136347983268)
PRK049,Bryan Park,Parks,Community Park,"1001 S Henderson Street, Bloomington, In",39.155192,-86.525343,POINT (-86.525347719358 39.155199841512)
PRK050,Jackson Creek Trail South Trail Head,Parks,Trailhead,"300Ft East Of The East End Of E Elliston Drive, Bloomington, In",39.127011,-86.51155,POINT (-86.511554912037 39.127018393953)
PRK051,Winslow Ballfields Western Trail Head,Parks,Trailhead,"S Highland Avenue North Of E Winslow Road, Bloomington, In",39.136875,-86.517537,POINT (-86.517542439581 39.136882244509)
PRK052,Broadview Park Playground,Parks,Playground,"704 W Graham Drive, Bloomington, In",39.140141,-86.541167,POINT (-86.541173185534 39.140146470737)
PRK053,Miller Showers Park,Parks,Neighborhood Park,"150 W 17Th Street, Bloomington, In",39.180664,-86.534214,POINT (-86.534219496918 39.180671315274)
PRK054,Bloomington Rail Trail North Trail Head,Parks,Trailhead,"Parking Lot On W Country Club Drive East Of S Madison Street, Bloomington, In",39.135949,-86.535147,POINT (-86.535152199602 39.135956025259)
PRK055,Lower Cascades Park Waterfall Shelter,Parks,Park Shelter,"2851 N Old State Road 37, Bloomington, In 47408",39.194794,-86.536201,POINT (-86.536208898573 39.194801018057)
PRK056,Cascade Trail  West Trail Head,Parks,Trailhead,"In Kinser Pike At W Club House Drive, Bloomington, In",39.200989,-86.542899,POINT (-86.542904106237 39.200996008522)
PRK057,Polly Grimshaw Trail West Trail Head,Parks,Trailhead,"At N State Road 46 South Of Railroad, Bloomington, In",39.17019,-86.501504,POINT (-86.501509386946 39.170197549055)
PRK058,Animal Island Plaza,Parks,Park Plaza Area,"Southwest Corner Of 6Th And Morton Street Intersection On B-Line, Bloomington, In",39.167085,-86.53614,POINT (-86.536145011027 39.16709263256)
PRK059,Olcott Park Playground,Parks,Playground,"2300 E Canada Drive, Bloomington, In",39.126561,-86.511088,POINT (-86.511093257061 39.126568600212)
PRK060,Mills Pool,Parks,Swimming Pool,"1100 W 14Th Street, Bloomington, In",39.176049,-86.54478,POINT (-86.544784713551 39.176055933572)
PRK061,Byan Park Pool Shelter,Parks,Park Shelter,"1020 S Woodlawn Avenue Bldg 2, Bloomington, In",39.154976,-86.523757,POINT (-86.523762568876 39.154983579135)
PRK062,Twin Lakes Trail Northern Trail Head,Parks,Trailhead,"N Of W Bloomfield Road Around Twin Lakes, Bloomington, In",39.155099,-86.566348,POINT (-86.56635300782 39.155106160846)
PRK063,Switchyard Park Community Gardens,Parks,Community Garden,"At Switchyard Park, Near The Hillside Entrance, Bloomington, In",39.15062,-86.53599,POINT (-86.535993940387 39.150632291304)
PRK064,Griffy Lake Nature Trail Boathouse Trail Head,Parks,Trailhead,"North Of Side Of  The Griffly Lake Boathouse Parking Lot Acr, Bloomington, In",39.198629,-86.513189,POINT (-86.513194271316 39.198636010807)
PRK065,Goat Farm,Parks,Undeveloped Greenspace,"2000 E Winslow Road, Bloomington, In",39.134041,-86.510097,POINT (-86.510229015095 39.134040543835)
PRK066,Latimer Woods,Parks,Nature Park/Preserve,"3200 E Buick Cadillac Boulevard, Bloomington, In",39.158671,-86.492991,POINT (-86.492971346064 39.158675449588)
PRK067,Ferguson Dog Park,Parks,Dog Park,"4300 N Stone Mill Road, Bloomington, In",39.209444,-86.532102,POINT (-86.532174816526 39.209402001487)
PRK068,Griffy Lake North Shore Trail Dam Trail Head,Parks,Trailhead,"Griffy Lake Dam Off Of N Dunn Street, Bloomington, In",39.205854,-86.527317,POINT (-86.527322020684 39.205861909515)
PRK069,Switchyard Park Rogers Entrance,Parks,Entrance,"1601 S Rogers Street, Bloomington, In 47403",39.147728,-86.5388,POINT (-86.538805184572 39.147735422084)
PRK070,Butler Park Community Garden,Parks,Community Garden,"West End Of Rev Butler Park W 9Th Street, Bloomington, In",39.170885,-86.544307,POINT (-86.544312665122 39.17089210932)
PRK071,Willie Streeter Community Garden,Parks,Community Garden,"2120 S Highland Avenue, Bloomington, In",39.141654,-86.516716,POINT (-86.516578726725 39.142316530708)
PRK072,Switchyard Park Playground,Parks,Playground,"9509 E Northshore Drive, Bloomington, In",39.146412,-86.535688,POINT (-86.535719985767 39.146397344024)
PRK073,RCA Park Playground,Parks,Playground,"1400 W Rca Park Drive, Bloomington, In",39.145015,-86.545929,POINT (-86.545934474357 39.145022685874)
PRK074,RCA Community Park Shelter 2,Parks,Park Shelter,"1400 W Rca Park Drive, Bloomington, In 47403",39.145128,-86.548665,POINT (-86.548673224765 39.145134121843)
PRK075,Bryan Park Woodlawn Shelter,Parks,Park Shelter,"1020 S Woodlawn Avenue Bldg 3, Bloomington, In",39.155954,-86.523259,POINT (-86.523264653929 39.155961352223)
PRK076,Lower Cascades Park Sycamore Shelter,Parks,Park Shelter,"013-29010, E 10Th Street, Bloomington, In 47404",39.197827,-86.53767,POINT (-86.537677932114 39.197833495354)
PRK077,Banneker Community Center,Parks,Community Center,"930 W 7Th Street, Bloomington, In",39.168922,-86.545049,POINT (-86.545054219197 39.168929719659)
PRK078,Crestmont Park Playground,Parks,Playground,"1209 W 15Th Street, Bloomington, In",39.17603,-86.549676,POINT (-86.549680920311 39.176034530814)
PRK079,Griffy Lake Lanam Trail East Trail Head,Parks,Trailhead,"Near Lanam Road, Bloomington, In",39.195888,-86.495972,POINT (-86.495976676582 39.195895546837)
PRK080,Jackson Creek Trail,Parks,Multi-use Trail,"Runs From Sherwood Oaks Park To Childs School, Bloomington, In",39.132268,-86.510792,POINT (-86.510796784189 39.132275187263)
PRK081,Winslow Woods Park,Parks,Community Park,"2120 S Highland Avenue, Bloomington, In",39.141619,-86.51806,POINT (-86.516763372816 39.141713404233)
PRK082,Park Ridge East Park Playground,Parks,Playground,"4421 E Morningside Drive, Bloomington, In",39.167198,-86.474188,POINT (-86.474193048431 39.167205333814)
PRK083,Schmaltz Farm Park Playground,Parks,Playground,"3010 E Daniel Street, Bloomington, In",39.136732,-86.491876,POINT (-86.491881902186 39.136738385863)
PRK084,Twin Lakes Sports Park,Parks,Sports Park,"2350 W Bloomfield Road, Bloomington, In",39.153833,-86.567549,POINT (-86.567554160974 39.153840286252)
PRK085,Switchyard Park,Parks,Community Park,"Along The B-Trail From Grimes Lane To Country Club Drive, Bloomington, In",39.147738,-86.535056,POINT (-86.53506075916 39.147745062896)
PRK086,Griffy Lake Wetland Trail End,Parks,Trailhead,"Eastern Edge Of Griffy Lake Shoreline, Bloomington, In",39.197222,-86.508631,POINT (-86.508636275923 39.19722986499)
PRK087,Olcott Park,Parks,Community Park,"2300 E Canada Drive, Bloomington, In",39.12563,-86.510514,POINT (-86.510519182231 39.125637777052)
PRK088,Bryan Park Playground,Parks,Playground,"1001 S Henderson Street, Bloomington, In",39.156172,-86.526435,POINT (-86.526440221008 39.156179741805)
PRK089,Skate Park at Upper Cascades,Parks,Skate Park,"2602 N Kinser Pike, Bloomington, In",39.191876,-86.536883,POINT (-86.536984709071 39.192122262344)
PRK090,Cascades Golf Course Clubhouse,Parks,Golf Course,"3550 N Kinser Pike, Bloomington, In",39.201292,-86.539051,POINT (-86.539059060086 39.20129933764)
PRK091,Upper Cascades Park Shelter,Parks,Park Shelter,"514 W Club House Drive, Bloomington, In 47404",39.203274,-86.539554,POINT (-86.539558987243 39.203278460419)
PRK092,Upper Cascades Park,Parks,Community Park,"514 W Club House Drive, Bloomington, In",39.203276,-86.53948,POINT (-86.539555500944 39.203272953079)
PRK093,Bloomington Community Farmers Market,Parks,Farmers Market,"Showers City Hall South Parking Lot, Bloomington, In",39.169189,-86.536794,POINT (-86.536798853686 39.169196050318)
PRK094,Park Ridge Park Playground,Parks,Playground,"3421 E Longview Avenue, Bloomington, In",39.167952,-86.490563,POINT (-86.490569465361 39.167956954965)
PRK095,Rev Ernest D Butler Park,Parks,Neighborhood Park,"812 W 9Th Street, Bloomington, In",39.17081,-86.542502,POINT (-86.542628661025 39.17063446263)
PRK096,Broadview Park,Parks,Neighborhood Park,"704 W Graham Drive, Bloomington, In",39.140054,-86.541687,POINT (-86.541758480028 39.140140955088)
PRK097,Wapehani Mountain Bike Park,Parks,Mountain Bike Park,"3401 W Wapehani Road, Bloomington, In",39.143658,-86.568945,POINT (-86.568950593327 39.143665892929)
PRK098,Farmers Market Plaza,Parks,Park Plaza Area,"W 8Th Street At B-Line Trail, Bloomington, In",39.169422,-86.537427,POINT (-86.537431920591 39.169429644766)
PRK099,Latimer Woods Trail Head,Parks,Trailhead,"North Loop Of E Stratum Way Between 3105 And 3115, Bloomington, In",39.1574,-86.493005,POINT (-86.493010156971 39.157407199124)
PRK100,Bryan Park Pool,Parks,Swimming Pool,"1020 S Woodlawn Avenue, Bloomington, In",39.154845,-86.523314,POINT (-86.523319287756 39.154852408829)
PRK101,Lower Cascades Park Trail Head N Side,Parks,Trailhead,"N Of Lower Cascades Park W Of Old Sr 37, Bloomington, In",39.197373,-86.537023,POINT (-86.537028671028 39.197380183918)
PRK102,Waldron Hill Buskirk Park Playground,Parks,Playground,"331 S Washington Street, Bloomington, In",39.163255,-86.531426,POINT (-86.531434732474 39.163259587053)
PRK103,Griffy Lake North Shore Trail East Trail Head,Parks,Trailhead,"N Headly Road North Of The Griffy Lake Boathouse, Bloomington, In",39.200529,-86.514331,POINT (-86.514336303643 39.20053601542)
PRK104,Park Ridge Park,Parks,Neighborhood Park,"3421 E Longview Avenue, Bloomington, In",39.167944,-86.490589,POINT (-86.490594199333 39.167951589685)
PRK105,RCA Community Park Trail Head,Parks,Trailhead,"West End Of W Rca Park Drive, Bloomington, In",39.14456,-86.547731,POINT (-86.547736116348 39.144566978129)
PRK106,Highland Village Park,Parks,Neighborhood Park,"950 S Harvey Drive, Bloomington, In",39.158035,-86.588815,POINT (-86.588820093115 39.158042572644)
PRK107,B-Line Trail West Trail Head,Parks,Trailhead,"N Adams Street South Of W 10Th Street, Bloomington, In",39.170874,-86.549746,POINT (-86.549751613895 39.170881448622)
PRK108,Switchyard Park Walnut Entrance,Parks,Entrance,"1836 S Walnut Street, Bloomington, In 47401",39.14823,-86.53316,POINT (-86.53316698433 39.148238577003)
PRK109,Cascades Park Trail,Parks,Multi-use Trail,"N Kinser Pike To N Stone Mill Road, Bloomington, In",39.199057,-86.536763,POINT (-86.536768625819 39.199064726996)
PRK110,Switchyard Pavillion,Parks,Community Center,"1601 S Rogers Street, Bloomington, In",39.146788,-86.536723,POINT (-86.536728832511 39.146797441313)
PRK111,Griffy Woods Nature Preserve,Parks,Nature Park/Preserve,"South Shore Of Griffy Lake Between N Dunn Street And N Hinkle Road, Bloomington, In",39.196486,-86.521452,POINT (-86.521457523526 39.19649345022)
PRK112,Winslow Ballfields Northern Trail Head,Parks,Trailhead,"E Highland Avenue Between Ballfields And Ymca Upper Parking Lot, Bloomington, In",39.140199,-86.515765,POINT (-86.515770649879 39.14020674899)
PRK113,Twin Lakes Recreation Center,Parks,Recreation Center,"1700 W Bloomfield Road, Bloomington, In",39.156268,-86.563218,POINT (-86.563365042084 39.156218548809)
PRK114,Frank Southern Ice Arena,Parks,Skating Rink,"2100 S Henderson Street, Bloomington, In",39.142669,-86.52737,POINT (-86.527366211977 39.142920345644)
PRK115,Southeast Park Playground,Parks,Playground,"1600 S Sycamore Court, Bloomington, In",39.148594,-86.504298,POINT (-86.504303564552 39.148601191004)
PRK116,Highland Village Park Playground,Parks,Playground,"950 S Harvey Drive, Bloomington, In",39.1583,-86.588464,POINT (-86.588472640045 39.158307417956)
PRK117,RCA Community Park Shelter 1,Parks,Park Shelter,"1400 W Rca Park Drive, Bloomington, In 47403",39.144626,-86.547306,POINT (-86.547312530577 39.144630924322)
PRK118,Allison-Jukebox Community Center,Parks,Community Center,"351 S Washington Street, Bloomington, In",39.163118,-86.53215,POINT (-86.532144936326 39.163089978539)
GOV001,Disability Claim Services Inc,Government Services,Social Services Office,"2620 N Walnut Street, Bloomington, In",39.192666,-86.533026,POINT (-86.53302570324772 39.19266596873702)
GOV002,City of Bloomington Utilities,Government Services,Utilities Office,"600 E Miller Drive, Bloomington, In",39.146875,-86.526743,POINT (-86.526743 39.146875)
GOV003,The UPS Store,Government Services,Shipping Service,"885 S College Mall Road, Bloomington, In",39.157244,-86.497704,POINT (-86.49770370553732 39.157243987374336)
GOV004,Showers City Hall,Government Services,Government Offices,"401 N Morton Street, Bloomington, In",39.169927,-86.536806,POINT (-86.5368107722 39.169934660816)
GOV005,Bloomington BMV Branch,Government Services,DMV,"1531 S Curry Pike Suite 500, Bloomington, In",39.161299,-86.582706,POINT (-86.5827063 39.1612988)
GOV007,Bloomington City Hall,Government Services,City Government Office,"401 N Morton Street, Bloomington, In",39.169734,-86.536677,POINT (-86.5366772 39.1697339)
GOV010,Community & Family Resources Department,Government Services,City Government Office,"401 N Morton Street Suite 260, Bloomington, In",39.170926,-86.536116,POINT (-86.5361163 39.1709259)
GOV011,USPS COLLECTION BOX,Government Services,Post Office,"Bloomington, In",39.16704,-86.534288,POINT (-86.5342881 39.1670396)
GOV012,Social Security Administration,Government Services,Social Security Office,"515 W Patterson Drive, Bloomington, In",39.158211,-86.545885,POINT (-86.54588526579478 39.158210561294155)
GOV013,United States Postal Service,Government Services,Post Office,"Clear Creek, In, Bloomington, IN",39.109214,-86.539997,POINT (-86.5399968 39.1092143)
GOV014,United States Postal Service,Government Services,Post Office,"4738 W Vernal Pike, Bloomington, In",39.179138,-86.557458,POINT (-86.5574584 39.179137749999995)
GOV015,Rose Hill Cemetery Office,Government Services,Government Offices,"930 W 4Th Street, Bloomington, In",39.165834,-86.545175,POINT (-86.545180038442 39.165841549326)
GOV016,United States Postal Service,Government Services,Post Office,"3210 E 10Th Street, Bloomington, In",39.170938,-86.493461,POINT (-86.49346124313047 39.17093825)
GOV017,United States Postal Service,Government Services,Post Office,"520 S Walnut Street, Bloomington, In",39.160887,-86.533756,POINT (-86.53375640139382 39.16088685503416)
GOV018,Bloomington Community and Family Resources,Government Services,Government Offices,"401 N Morton Street Ste 260, Bloomington, In",39.16983,-86.536616,POINT (-86.536621059974 39.169837676697)
GOV019,Innovation Lab,Government Services,Government Offices,"627 N Morton Street, Bloomington, In",39.172582,-86.536221,POINT (-86.536225864906 39.172589612604)
GOV020,Family Solutions,Government Services,Social Services Office,"1180 Liberty Drive, Bloomington, In",39.151003,-86.576938,POINT (-86.576938 39.151003)
GOV021,Adult Protective Services,Government Services,Social Services Office,"501 N Morton Street, Bloomington, In",39.170582,-86.53621,POINT (-86.53621 39.170582)
GOV022,Habitat for Humanity of Monroe County,Government Services,Non-profit Organization,"213 E Kirkwood Avenue, Bloomington, In",39.166818,-86.531583,POINT (-86.53158329737832 39.1668176)
GOV023,USPS COLLECTION BOX,Government Services,Post Office,"119 W 7Th Street, Bloomington, In",39.168323,-86.53449,POINT (-86.53448956150235 39.168323349999994)
GOV024,South Central Community Action Program,Government Services,Non-profit Organization,"1500 W 15Th Street, Bloomington, In",39.177107,-86.553058,POINT (-86.55305755579975 39.17710685)
GOV025,Fleet Maintenance,Government Services,Government Operations,"800 E Miller Drive, Bloomington, In",39.146616,-86.52382,POINT (-86.523825245023 39.146623641902)
GOV026,Street Department,Government Services,Government Operations,"1981 S Henderson Street, Bloomington, In",39.145641,-86.524223,POINT (-86.524213307707 39.145705740054)
GOV027,Monroe Water Treatment Plant,Government Services,Government Operations,"7470 S Shields Ridge Road, Bloomington, In",39.072254,-86.463459,POINT (-86.462905944191 39.072868379773)
GOV028,Dillman Road Wastewater Treatment Plant,Government Services,Government Operations,"100 W Dillman Road, Bloomington, In",39.093657,-86.549131,POINT (-86.549136096069 39.093664864461)
GOV029,Bloomington Parks & Recreation Department,Government Services,Government Offices,"401 N Morton Street Ste 250, Bloomington, In",39.170288,-86.537064,POINT (-86.537068986504 39.170295539388)
GOV030,Bloomington Controllers Office,Government Services,Government Offices,"401 N Morton Street Ste 240, Bloomington, In",39.169811,-86.536627,POINT (-86.536631789659 39.169818508191)
GOV031,Bloomington HAND & Planning and Transportation,Government Services,Government Offices,"401 N Morton Street Ste 130, Bloomington, In",39.169658,-86.536705,POINT (-86.536710573024 39.16966512611)
GOV032,Bloomington Parks Operations,Government Services,Government Operations,"545 S Adams Street, Bloomington, In",39.161938,-86.55041,POINT (-86.55050333038 39.161942606785)
GOV033,Housing Authority,Government Services,Government Offices,"1007 N Summit Street, Bloomington, In",39.175263,-86.548348,POINT (-86.548353348865 39.175270670426)
GOV034,Bloomington Legal,Government Services,Government Offices,"401 N Morton Street Ste 220, Bloomington, In",39.16977,-86.536648,POINT (-86.536653270267 39.169777425725)
GOV035,Sanitation Division,Government Services,Government Operations,"3406 S Walnut Street, Bloomington, In",39.123598,-86.532634,POINT (-86.532781113088 39.123537604148)
GOV036,Cascades Maintenance Building,Government Services,Government Operations,"3940 N Kinser Pike, Bloomington, In",39.204302,-86.543293,POINT (-86.543298649583 39.204308958975)
GOV037,Animal Shelter,Government Services,Government Offices,"3410 S Walnut Street, Bloomington, In",39.122961,-86.532054,POINT (-86.532218413939 39.122922682013)
GOV038,Bloomington City Clerk Office,Government Services,Government Offices,"401 N Morton Street Ste 110, Bloomington, In",39.169606,-86.53678,POINT (-86.536785042818 39.169613309971)
GOV039,Bloomington Office of the Mayor,Government Services,Government Offices,"401 N Morton Street Ste 210, Bloomington, In",39.170108,-86.536677,POINT (-86.536682398552 39.170115264928)
GOV040,Bloomington Human Resources,Government Services,Government Offices,"401 N Morton Street Ste 230, Bloomington, In",39.169792,-86.536637,POINT (-86.536642519338 39.169799339683)
GOV041,Switchyard Park Maintenance,Government Services,Government Operations,"1611 S Rogers Street, Bloomington, In",39.147344,-86.538327,POINT (-86.538332393145 39.147351318149)
GOV042,Bloomington Public Works,Government Services,Government Offices,"401 N Morton Street Ste 120, Bloomington, In",39.169633,-86.536713,POINT (-86.536717818212 39.169640450151)
GOV043,Utility Service Center,Government Services,Government Offices,"600 E Miller Drive, Bloomington, In",39.146056,-86.526028,POINT (-86.525922408612 39.146274022404)
GOV044,Bloomington Traffic Division,Government Services,Government Operations,"121 W Allen Street, Bloomington, In",39.15549,-86.534865,POINT (-86.534856571165 39.155426187854)
GOV045,Bloomington Economic and Sustaintable Development,Government Services,Government Offices,"401 N Morton Street Ste 150, Bloomington, In",39.169723,-86.536677,POINT (-86.536681847273 39.169730885446)
GOV046,CBU Southeast Booster Station & Tank,Government Services,Government Operations,"4101 S Harrell Road, Bloomington, In",39.119505,-86.496638,POINT (-86.496643165317 39.119512030248)
GOV047,Blucher Poole Wastewater Treatment Plant,Government Services,Government Operations,"5555 N Bottom Road, Bloomington, In",39.246584,-86.548361,POINT (-86.548365353577 39.246712332583)
GOV048,Bloomington Information Technology Services,Government Services,Government Offices,"401 N Morton Street Ste 160, Bloomington, In",39.169748,-86.536662,POINT (-86.536667548147 39.169755528311)
EDU001,Ruth Lilly Auxiliary Library Facility,Education,Library,"2850 E Discovery Parkway, Bloomington, IN",39.174901,-86.497327,POINT (-86.49732749433639 39.174901399999996)
EDU002,Herman B Wells Library,Education,Library,"1320 E 10Th Street, Bloomington, IN",39.171051,-86.516851,POINT (-86.51685115237282 39.17105145)
EDU003,Grandview Elementary School,Education,Public School,"2300 S Endwright Road, Bloomington, IN",39.146032,-86.596404,POINT (-86.59640384206081 39.14603169383584)
EDU004,Neal-Marshall Black Culture Center Library,Education,Library,"275 N Eagleson Avenue, Bloomington, IN",39.168372,-86.516912,POINT (-86.51691209250174 39.16837155)
EDU005,Seven Oaks Classical School,Education,Public School,"Ellettsville, In, Bloomington, IN",39.233935,-86.625001,POINT (-86.6250008 39.2339348)
EDU006,Adventist Christian Elementary,Education,Private School,"2230 N Martha Street, Bloomington, IN",39.186754,-86.531347,POINT (-86.53134741710555 39.1867545)
EDU007,Ivy Tech Bloomington Library,Education,Library,"200 Daniels Way, Bloomington, IN",40.245393,-74.274329,POINT (-74.27432916348606 40.24539291029812)
EDU008,Mannered Mutts Training LLC,Education,Training Center,"4001 E 3Rd Street Suite 1, Bloomington, IN",14.45337,120.982843,POINT (120.98284321642807 14.453370041176868)
EDU009,University Elementary School,Education,Public School,"1111 N Russell Road, Bloomington, IN",39.175797,-86.482594,POINT (-86.4825937 39.1757974)
EDU010,Inner Resources Training Institute,Education,Training Center,"304 W Howe Street Suite B, Bloomington, IN",39.162468,-86.536499,POINT (-86.5364987 39.1624684)
EDU011,Monroe County Community School Corporation,Education,Public School,"315 E North Drive, Bloomington, IN",39.144488,-86.529479,POINT (-86.52947895452469 39.14448801846578)
EDU012,Wild Orchid - Embodied Pole Dance & Sensual Arts Studio,Education,Training Center,"217 W 6Th Street Suite 105, Bloomington, IN",39.16748,-86.535178,POINT (-86.5351782 39.1674803)
EDU014,The Excel Center,Education,School,"2088 Liberty Drive, Bloomington, IN",36.102532,-79.817104,POINT (-79.81710379955075 36.102531701248765)
EDU015,The Academy of Science and Entrepreneurship,Education,Public School,"444 S Patterson Drive, Bloomington, IN",35.334872,-97.472252,POINT (-97.47225164435535 35.33487173677323)
EDU016,Cook Music Library,Education,Library,"200 S Eagleson Avenue, Bloomington, IN",39.165349,-86.517439,POINT (-86.51743911108935 39.16534885)
EDU017,Templeton Elementary School,Education,Public School,"1400 S Brenda Avenue, Bloomington, IN",39.16533,-86.52639,POINT (-86.52639 39.16533)
EDU018,Marlin Elementary School,Education,Public School,"1655 E Bethel Lane, Bloomington, IN",39.215396,-86.516286,POINT (-86.51628592456056 39.21539553625489)
EDU019,Education Library,Education,Library,"201 N Rose Avenue, Bloomington, IN",39.167015,-86.5125,POINT (-86.51250049088785 39.16701535)
EDU020,Bloomington Montessori School,Education,Private School,"1835 S Highland Avenue, Bloomington, IN",39.144468,-86.516779,POINT (-86.51677889819909 39.14446825)
EDU021,Covenant Christian School,Education,Private School,"4000 E Moores Creek Road, Bloomington, IN",39.120071,-86.484112,POINT (-86.48411191823976 39.120071389033996)
EDU022,Friends of the Library Bookstore,Education,Library,"303 E Kirkwood Avenue, Bloomington, IN",39.166938,-86.530448,POINT (-86.530448225 39.16693765)
EDU023,Union Piping Industry Training Center,Education,Training Center,"1650 W Bloomfield Road, Bloomington, IN",42.950636,-77.532608,POINT (-77.53260848387097 42.95063622580645)
EDU024,Acadis by Vector Solutions,Education,Training Center,"101 W Kirkwood Avenue Suite 200, Bloomington, IN",39.166285,-86.53424,POINT (-86.5342397 39.1662847)
EDU025,Highland Park Elementary School,Education,Public School,"900 S Park Square Drive, Bloomington, IN",39.156741,-86.591861,POINT (-86.591861 39.156741)
EDU026,The Lilly Library,Education,Library,"1200 E 7Th Street, Bloomington, IN",39.167914,-86.518982,POINT (-86.51898175 39.167913549999994)
EDU027,Hoosier Hills Career Center,Education,School,"3070 N Prow Road, Bloomington, IN",39.197733,-86.552067,POINT (-86.55206746207621 39.197733297450604)
EDU028,Binford Elementary School,Education,Public School,"2300 E 2Nd Street, Bloomington, IN",40.593274,-73.969126,POINT (-73.9691260465438 40.59327355)
EDU029,Wolverine Fight System,Education,Training Center,"116 1/2 S College Avenue Suite 11, Bloomington, IN",39.158332,-86.535023,POINT (-86.5350232 39.1583322)
EDU030,IUB Business / SPEA Library,Education,Library,"1315 East 10Th Street, Bloomington, IN",40.617092,-73.964484,POINT (-73.96448375 40.61709245)
EDU031,Grace Baptist Church & Academy,Education,Private School,"2320 N Smith Pike, Bloomington, IN",39.189154,-86.583005,POINT (-86.583005 39.189154)
EDU032,Fairview Elementary School,Education,Public School,"500 W 7Th Street, Bloomington, IN",42.099034,-79.248566,POINT (-79.24856586938469 42.099034)
EDU033,BMG Aviation,Education,Training Center,"952 S Kirby Road, Bloomington, IN",39.156395,-86.610525,POINT (-86.61052547193955 39.15639506900914)
EDU034,Tri-North Middle School,Education,Public School,"1000 W 15Th Street, Bloomington, IN",33.018785,-96.715995,POINT (-96.71599495792606 33.01878524999999)
EDU036,Monroe County Adult Education,Education,School,"705 W Coolidge Drive, Bloomington, IN",39.14121,-86.541267,POINT (-86.5412674446561 39.14121002998908)
EDU037,St. Benedict Classical Catholic School,Education,Private School,"4609 In-46, Bloomington, IN",16.034014,-16.505226,POINT (-16.505226200000003 16.0340137)
EDU038,Childs Elementary School,Education,Public School,"2211 S High Street, Bloomington, IN",39.138419,-86.506107,POINT (-86.5061074 39.1384189)
EDU039,IU School of Public Health,Education,Public School,"1025 E 7Th Street, Bloomington, IN",39.169221,-86.520841,POINT (-86.52084144781067 39.1692206)
EDU040,Monroe County Public Library - Southwest Branch,Education,Library,"890 W Gordon Pike, Bloomington, IN",39.122197,-86.542701,POINT (-86.54270084904341 39.12219705)
EDU041,Maurer School of Law Library,Education,Library,"211 S Indiana Avenue, Bloomington, IN",39.165089,-86.526326,POINT (-86.52632642485594 39.1650891)
EDU042,Clear Creek Elementary School,Education,Public School,"300 W Clear Creek Drive, Bloomington, IN",35.635504,-97.564101,POINT (-97.56410128827092 35.635504390107165)
EDU045,Kid Angles: The Early Education,Education,School,"1500 E Hillside Drive, Bloomington, IN",39.15046,-86.51497,POINT (-86.51497 39.15046)
EDU046,Regional Academic Health Center (RAHC),Education,University,"2631 E Discovery Parkway, Bloomington, In 47408",39.175354,-86.499586,POINT (-86.49958572570831 39.17535409755241)
EDU047,Harmony School,Education,Public School,"909 E 2Nd Street, Bloomington, IN",39.16175,-86.521455,POINT (-86.52145479882076 39.1617495)
EDU048,Longevity Bloomington,Education,Fitness Center,"417 N Elm Street, Bloomington, IN",42.139618,-72.734412,POINT (-72.73441239648658 42.13961825)
EDU049,Lisa's Bloomington English Academy,Education,Public School,"3069 E Amy Lane, Bloomington, IN",39.169307,-86.496872,POINT (-86.4968721 39.1693068)
EDU050,Workshops By Thiagi Inc,Education,Training Center,"4423 E Trailridge Road, Bloomington, IN",35.605782,-82.538261,POINT (-82.53826117598238 35.60578181260297)
EDU051,Lighthouse Christian Academy,Education,Private School,"1201 W That Road, Bloomington, IN",39.114528,-86.545488,POINT (-86.54548770288206 39.11452760107239)
EDU052,Prep School,Education,Public School,"525 W 17Th Street, Bloomington, IN",39.17874,-86.539302,POINT (-86.5393015 39.1787397)
EDU053,St Charles School,Education,Public School,"2224 E 3Rd Street, Bloomington, IN",40.595845,-73.968503,POINT (-73.96850300000001 40.595845)
EDU054,Clear Creek Christian School,Education,Private School,"530 W Church Lane, Bloomington, IN",39.10741,-86.539716,POINT (-86.53971552051625 39.10741021849584)
EDU055,Bloomington Developmental Learning Center,Education,School,"1807 S Highland Avenue, Bloomington, IN",34.041892,-118.345824,POINT (-118.3458244 34.041892000000004)
EDU056,Stratosphere Pole Resilience,Education,Fitness Center,"312 E Dixie Street, Bloomington, IN",39.156308,-86.530656,POINT (-86.53065551011005 39.156307600000005)
EDU057,IUB Sciences Library,Education,Library,"800 E Kirkwood Avenue, Bloomington, IN",41.565399,-93.601757,POINT (-93.601757 41.565399)
EDU058,IU High School,Education,Public School,"625 N Eagleson Avenue, Bloomington, IN",39.172369,-86.51596,POINT (-86.51595989451599 39.1723688)
EDU060,Hoosier Lash Academy,Education,Public School,"328 S Walnut Street Ste 1, Bloomington, IN",39.163879,-86.533738,POINT (-86.5337375 39.163879)
EDU061,Train Bloomington Fitness Center,Education,Fitness Center,"2674 E 2Nd Street, Bloomington, IN",39.160841,-86.498416,POINT (-86.4984163 39.1608406)
EDU063,The Project School,Education,Public School,"349 S Walnut Street, Bloomington, IN",43.605218,-116.184646,POINT (-116.1846463 43.6052175)
EDU064,Summit Elementary School,Education,Public School,"1450 W Countryside Lane, Bloomington, IN",39.141283,-86.553218,POINT (-86.55321763859857 39.14128287170249)
EDU066,Stone Creek Ranch,Education,Training Center,"7587 Rockport Road, Bloomington, IN",40.876822,-83.961272,POINT (-83.96127194322607 40.876821782462486)
EDU067,Hoosier Courts Nursery School,Education,Public School,"1150 N Union Court, Bloomington, IN",39.174565,-86.508848,POINT (-86.50884815782828 39.1745653)
EDU068,Arlington Heights Elementary School,Education,Public School,"700 W Parrish Road, Bloomington, IN",39.188122,-86.539199,POINT (-86.53919936780892 39.188121550814216)
EDU069,City of Bloomington Public Safety Training Center,Education,Training Center,"3230 S Walnut Street, Bloomington, IN",37.636352,-97.351172,POINT (-97.35117151675402 37.63635214033444)
RES001,The Orbit Room,Restaurant,Vegan,"107 N College Avenue #001, Bloomington, IN",39.16692,-86.535267,POINT (-86.53526701832776 39.16691985)
RES002,BJ's Restaurant & Brewhouse,Restaurant,American,"411 S College Mall Road, Bloomington, IN",39.162746,-86.497582,POINT (-86.49758205531376 39.1627457)
RES003,The Tudor Room,Restaurant,American,"900 E 7Th Street, Bloomington, IN",30.266551,-97.733031,POINT (-97.73303094394606 30.2665513)
RES004,Taste of India,Restaurant,Indian,"316 E 4Th Street, Bloomington, IN",25.825457,-80.274403,POINT (-80.27440344925142 25.82545735)
RES005,Metal Works Brewing Company,Restaurant,Brewpub,"108 E 6Th Street, Bloomington, IN",43.457246,-76.501852,POINT (-76.5018515 43.4572455)
RES006,BRU Burger Bar Bloomington,Restaurant,Hamburger,"229 S Grant Street Suite 1, Bloomington, IN",45.507179,-122.676398,POINT (-122.67639845541511 45.50717851010966)
RES007,Cloverleaf Family Restaurant,Restaurant,Family-friendly,"4023 W 3Rd Street, Bloomington, IN",39.164006,-86.58419,POINT (-86.5841895 39.1640057)
RES008,Little Tibet Restaurant,Restaurant,Tibetan,"415 E 4Th Street, Bloomington, IN",40.641968,-73.976035,POINT (-73.9760349 40.6419679)
RES010,Asuka Steak House,Restaurant,Japanese,"2632 E 3Rd Street, Bloomington, IN",34.040033,-118.208369,POINT (-118.20836853061225 34.04003255102041)
RES011,Root Cellar,Restaurant,Bar,"108 E Kirkwood Avenue, Bloomington, IN",41.565442,-93.613106,POINT (-93.61310635922331 41.56544225242719)
RES012,Nick's English Hut,Restaurant,American,"423 E Kirkwood Avenue, Bloomington, IN",39.166853,-86.528742,POINT (-86.52874212500001 39.1668531)
RES013,La Una Cantina,Restaurant,Mexican,"254 N Walnut Street, Bloomington, IN",39.168364,-86.533232,POINT (-86.53323192483435 39.16836365)
RES014,Chow Bar,Restaurant,Chinese,"216 S Indiana Avenue, Bloomington, IN",39.164808,-86.527199,POINT (-86.5271993 39.1648076)
RES015,Blooming Thai,Restaurant,Thai,"405 E 4Th Street, Bloomington, IN",39.165746,-86.529471,POINT (-86.52947146728263 39.165745900000005)
RES016,Smokin' Jack's Rib Shack,Restaurant,Barbecue,"505 W 17Th Street, Bloomington, IN",39.178682,-86.538695,POINT (-86.5386954 39.1786817)
RES017,Crazy Horse,Restaurant,American,"214 W Kirkwood Avenue, Bloomington, IN",39.166885,-86.535704,POINT (-86.53570447663886 39.16688485)
RES018,The Elm Restaurant,Restaurant,American,"614 E 2Nd Street, Bloomington, IN",40.636206,-73.977263,POINT (-73.97726331012974 40.63620635)
RES019,Upland Brewing Co.,Restaurant,Brewpub,"350 W 11Th Street, Bloomington, IN",39.78254,-86.165894,POINT (-86.16589426392832 39.7825396)
RES020,Uptown Cafe,Restaurant,American,"102 E Kirkwood Avenue, Bloomington, IN",41.565443,-93.613264,POINT (-93.6132636407767 41.56544274757282)
RES021,SmokeWorks Bloomington,Restaurant,American,"121 N College Avenue, Bloomington, IN",39.167315,-86.53525,POINT (-86.5352501161498 39.1673149)
RES022,Feta Kitchen and Cafe,Restaurant,Mediterranean,"600 E Hillside Drive, Bloomington, IN",39.150281,-86.526636,POINT (-86.52663570279259 39.150280800000004)
RES023,Vivencia Lat√≠n Flavors,Restaurant,Latin,"2800 E Buick Cadillac Boulevard, Bloomington, IN",39.157715,-86.497273,POINT (-86.49727255616494 39.1577154)
RES024,Runcible Spoon,Restaurant,American,"412 E 6Th Street, Bloomington, IN",30.267054,-97.738738,POINT (-97.7387385 30.2670541)
RES025,Cozy Table,Restaurant,Family-friendly,"2500 W 3Rd Street, Bloomington, IN",39.833492,-75.388045,POINT (-75.3880446 39.833492)
RES026,Feast Market & Cellar,Restaurant,American,"407 W Patterson Drive, Bloomington, IN",-37.53274,144.993249,POINT (144.99324856385476 -37.532739780531834)
RES028,Hive,Restaurant,American,"2608 E 10Th Street, Bloomington, IN",39.170754,-86.501125,POINT (-86.5011251 39.1707541)
RES030,Marco and Polo Restaurant,Restaurant,Uyghur,"209 S Grant Street, Bloomington, IN",39.165208,-86.529599,POINT (-86.5295993 39.1652076)
RES031,Half Bottle Bistro,Restaurant,American,"3115 S Sare Road, Bloomington, IN",39.133184,-86.497784,POINT (-86.49778373505043 39.13318445)
RES032,Che Bello,Restaurant,Italian,"106 W 6Th Street, Bloomington, IN",39.167808,-86.533887,POINT (-86.53388650748555 39.167808)
RES034,Big Woods Bloomington,Restaurant,American,"116 N Grant Street, Bloomington, IN",39.167131,-86.52959,POINT (-86.52958997532201 39.16713145)
RES035,Cafe Bali,Restaurant,Asian,"210 S Grant Street, Bloomington, IN",39.165162,-86.530056,POINT (-86.5300562 39.165161600000005)
RES036,Fat Dan's Deli,Restaurant,American,"221 E Kirkwood Avenue Ste 1, Bloomington, IN",39.166906,-86.531291,POINT (-86.5312914 39.1669058)
RES037,Lennie's Brewpub,Restaurant,Brewpub,"514 E Kirkwood Avenue, Bloomington, IN",39.1664,-86.527496,POINT (-86.5274963 39.1663999)
RES038,Cafe Turkuaz,Restaurant,Turkish,"301 E 3Rd Street, Bloomington, IN",30.265392,-97.742823,POINT (-97.7428231 30.2653919)
RES039,BuffaLouie's at The Gables,Restaurant,American,"114 S Indiana Avenue, Bloomington, IN",39.165957,-86.527134,POINT (-86.52713420018262 39.1659572)
RES040,Cheddar's Scratch Kitchen,Restaurant,American,"126 S Franklin Road, Bloomington, IN",39.166029,-86.571417,POINT (-86.5714171 39.1660289)
RES041,Da Vinci Pizza and Pasta,Restaurant,Italian,"250 S Washington Street, Bloomington, IN",39.287942,-76.589193,POINT (-76.5891927051226 39.287942)
RES042,DeAngelo's Italian Creole Restaurant,Restaurant,Italian,"2620 E 3Rd Street, Bloomington, IN",34.04009,-118.208498,POINT (-118.20849808163265 34.040090469387756)
RES043,Truffles Fine Cuisine & 56 Degrees Bar,Restaurant,Fine Dining,"1131 S College Mall Road, Bloomington, IN",39.154686,-86.4956,POINT (-86.49560015511489 39.15468575)
RES044,Scenic View Restaurant,Restaurant,Brunch,"4600 State Highway 446, Bloomington, IN",50.464884,5.250129,POINT (5.2501288360982015 50.464884116274135)
RES045,Yogi's Bloomington,Restaurant,Grill,"302 N Walnut Street, Bloomington, IN",39.168703,-86.533393,POINT (-86.5333932 39.1687029)
RES046,Korea Restaurant,Restaurant,Korean,"409 E 4Th Street, Bloomington, IN",40.642077,-73.975954,POINT (-73.97595423531097 40.64207655)
RES047,Riviera Maya Bloomington,Restaurant,Mexican,"116 S Franklin Road, Bloomington, IN",39.167391,-86.571588,POINT (-86.57158753762494 39.1673914)
RES048,C3 Bar,Restaurant,Bar,"1505 S Piazza Drive, Bloomington, IN",39.149453,-86.499562,POINT (-86.49956168139957 39.149453449999996)
RES049,Yatagarasu - Bloomington,Restaurant,Japanese,"430 E Kirkwood Avenue Unit 6, Bloomington, IN",40.660102,-73.548227,POINT (-73.5482266929907 40.660102121329366)
RES050,Dats,Restaurant,Cajun,"408 E 4Th Street, Bloomington, IN",40.642112,-73.976453,POINT (-73.9764533347408 40.642112049999994)
RES051,Malibu Grill,Restaurant,American,"106 N Walnut Street, Bloomington, IN",38.835939,-104.834551,POINT (-104.83455068034019 38.8359392)
RES052,Janko's Little Zagreb,Restaurant,Steakhouse,"223 W 6Th Street, Bloomington, IN",43.449224,-76.512878,POINT (-76.512878 43.449224)
RES054,Uncle Wang's Alley,Restaurant,Chinese,"300 E 3Rd Street, Bloomington, IN",40.721013,-73.979499,POINT (-73.97949872019987 40.72101325)
RES055,Kimu Asian Restaurant,Restaurant,Burmese,"413 E 4Th Street, Bloomington, IN",40.642001,-73.976041,POINT (-73.9760409 40.6420006)
RES056,Trojan Horse,Restaurant,Greek,"100 E Kirkwood Avenue, Bloomington, IN",41.565443,-93.613316,POINT (-93.61331606796116 41.565442912621364)
RES057,Osteria Rago,Restaurant,Italian,"419 E Kirkwood Avenue, Bloomington, IN",39.166627,-86.529419,POINT (-86.52941924706646 39.16662676015101)
RES058,Siam House,Restaurant,Thai,"430 E 4Th Street, Bloomington, IN",40.64161,-73.97639,POINT (-73.97638950450718 40.64160975)
RES059,Le Petit Cafe,Restaurant,French,"308 W 6Th Street, Bloomington, IN",39.167796,-86.536598,POINT (-86.53659825297382 39.1677962)
RES060,Social Cantina Bloomington,Restaurant,Mexican,"125 N College Avenue, Bloomington, IN",39.768645,-86.145712,POINT (-86.14571244120967 39.76864479862455)
PUB001,Bloomington Fire Department,Public Safety,Fire Station,"300 E 4Th Street, Bloomington, In",39.165285,-86.530889,POINT (-86.5308885238536 39.1652852)
PUB002,Bloomington Fire Station 4,Public Safety,Fire Station,"2201 E 3Rd Street, Bloomington, In",39.164491,-86.506513,POINT (-86.506518591175 39.164497973535)
PUB003,Bloomington Police Substation,Public Safety,Police Substation,"245 W Grimes Lane, Bloomington, In",39.153278,-86.535431,POINT (-86.53543089245797 39.15327803478663)
PUB004,Bloomington Fire Station #5,Public Safety,Fire Station,"1987 S Henderson Street, Bloomington, In",39.14443,-86.526853,POINT (-86.526853 39.14443)
PUB005,Bloomington Fire Station #4,Public Safety,Fire Station,"2201 E 3Rd Street, Bloomington, In",39.164544,-86.506579,POINT (-86.50657850660527 39.164544)
PUB006,Indiana State Police,Public Safety,State Police,"1500 N Packing House Road, Bloomington, In",39.179009,-86.563243,POINT (-86.563243 39.179009)
PUB007,Bloomington Fire Station 5,Public Safety,Fire Station,"1987 S Henderson Street, Bloomington, In",39.145416,-86.526502,POINT (-86.526425862255 39.145474723938)
PUB008,Indiana University Police Department (IUPD),Public Safety,Police Department,"1469 E 17Th Street, Bloomington, In",39.179279,-86.513341,POINT (-86.5133414746048 39.17927895)
PUB009,Bloomington Police Department,Public Safety,Police Department,"220 E 3Rd Street, Bloomington, In",39.164349,-86.531517,POINT (-86.53151727500001 39.1643493)
PUB010,Bloomington Fire Station 1 (HQ),Public Safety,Fire Station,"300 E 4Th Street, Bloomington, In",39.165361,-86.530821,POINT (-86.530825740768 39.165368034843)
PUB011,Monroe Fire Protection District Station 22,Public Safety,Fire Station,"3953 S Kennedy Drive, Bloomington, In",39.12248,-86.528392,POINT (-86.52839244154579 39.12248027224351)
PUB012,Monroe County Sheriff's Department,Public Safety,Sheriff's Department,"301 N College Avenue, Bloomington, In",39.169093,-86.535227,POINT (-86.53522720000001 39.1690926)
PUB013,Bloomington Fire Station #3,Public Safety,Fire Station,"810 N Woodlawn Avenue, Bloomington, In",39.173879,-86.523186,POINT (-86.52318631412268 39.17387865)
PUB014,Bloomington Fire Station 2,Public Safety,Fire Station,"209 S Fairfield Drive, Bloomington, In",39.165281,-86.569751,POINT (-86.56975597816 39.165288023265)
PUB015,Monroe Fire Protection District Station 29,Public Safety,Fire Station,"2130 S Kirby Road, Bloomington, In",39.1637,-86.529174,POINT (-86.5291743 39.1636996)
PUB016,Monroe Fire Protection District,Public Safety,Fire Station,"285 East Rhorer Road, Bloomington, In",39.121529,-86.527028,POINT (-86.52702814285715 39.12152914285714)
PUB017,Ellettsville Fire Department Station 8,Public Safety,Fire Station,"900 N Curry Pike, Bloomington, In",39.174704,-86.582916,POINT (-86.582916 39.174704)
PUB018,Ellettsville Fire Department,Public Safety,Fire Station,"5080 In-46, Bloomington, In",39.207546,-86.601384,POINT (-86.6013836 39.2075465)
PUB020,Benton Township Volunteer Fire Department,Public Safety,Fire Station,"7606 E State Road 45, Bloomington, In",39.186284,-86.524052,POINT (-86.5240522 39.1862838)
PUB021,MFD Station 25,Public Safety,Fire Station,"5081 Old State Road 37, Bloomington, In",39.184304,-86.535256,POINT (-86.5352558181013 39.184303506936104)
PUB022,Temporary Station 1 HQ,Public Safety,Fire Station,"226 S College Avenue, Bloomington, In",39.16493,-86.535603,POINT (-86.535607992947 39.16493759324)
PUB023,Police Department Headquarters,Public Safety,Police Station,"220 E 3Rd Street, Bloomington, In",39.164375,-86.531512,POINT (-86.531517651442 39.164382913035)
PUB024,BPD Switchyard Substation,Public Safety,Police Station,"245 W Grimes Lane, Bloomington, In",39.15306,-86.536005,POINT (-86.536010336562 39.153067683351)
PUB025,Public Safety Training Facility,Public Safety,Public Safety Training Facility,"3230 S Walnut Street, Bloomington, In",39.127188,-86.532966,POINT (-86.532971183514 39.127195607827)
PUB026,Bloomington Fire Station 3,Public Safety,Fire Station,"810 N Woodlawn Avenue, Bloomington, In",39.1738,-86.523277,POINT (-86.523098161764 39.173839611729)
PUB027,Bloomington Fire Station #2,Public Safety,Fire Station,"209 S Fairfield Drive, Bloomington, In",39.165361,-86.56969,POINT (-86.56968974717483 39.1653607)
PUB028,Bloomington Fire Training Tower,Public Safety,Public Safety Training Facility,"3190 S Walnut Street, Bloomington, In",39.127633,-86.533019,POINT (-86.533024119742 39.1276406408)
CEM001,White Oak Cemetery,Cemetery,Cemetery,"1200 W 7Th Street, Bloomington, In",39.169052,-86.548152,POINT (-86.548257295392 39.168862104662)
CEM002,Rose Hill Cemetery,Cemetery,Cemetery,"1100 W 4Th Street, Bloomington, In",39.165708,-86.545797,POINT (-86.546887227253 39.165819219525)
PRK001,Frank Southern Ice Arena Parking Lot,Parking,Parking,"N Of Frank Southern Ice Arena, Bloomington, In",39.143733,-86.527257,POINT (-86.527261036202 39.143740768385)
PRK002,College Ave and Smith Ave Parking Lot,Parking,Surface Parking Lot,"S College Avenue South Of Convention Center, Bloomington, In",39.163404,-86.535608,POINT (-86.535612778089 39.1634110862)
PRK003,Griffy Lake Nature Preserve Parking Lot South,Parking,Parking,"W Side Of Headley Road, South Of Griffy Lake, Bloomington, In",39.191774,-86.511995,POINT (-86.512000675685 39.191782785718)
PRK004,6th and Lincoln Parking Lot,Parking,Surface Pay Lot,"Across From The Monroe County Public Library, Bloomington, In",39.167258,-86.53143,POINT (-86.531435169603 39.167265356063)
PRK005,Cascades Golf Course Parking Lot,Parking,Parking,"Parking Lot At Cascades Golf Course, Bloomington, In",39.201715,-86.538816,POINT (-86.538819361672 39.201723776371)
PRK006,Clear Creek Trail Parking Lot South,Parking,Parking Lot,"Clear Creek Trail, Bloomington, In 47403",39.107639,-86.542959,POINT (-86.542965786628 39.10764441955)
PRK007,4th and Washington Parking Lot,Parking,Surface Pay Lot,"4Th Street Between Walnut And Washington, Bloomington, In",39.165826,-86.532834,POINT (-86.532839486125 39.165833327279)
PRK008,Trades District Parking Garage,Parking,Parking Garage,"489 W 10Th Street, Bloomington, In",39.170968,-86.537923,POINT (-86.537927882283 39.17097496847)
PRK009,Ferguson Dog Park Parking Lot,Parking,Parking,"4300 N Stone Mill Road, Bloomington, In 47408",39.209213,-86.532831,POINT (-86.532836165232 39.209221177043)
PRK010,3rd and Washington Parking Lot,Parking,Surface Pay Lot,South Side Of The Bloomington Police Department,39.164248,-86.53188,POINT (-86.5318854356 39.164255613064)
PRK011,Switchyard Park Parking Lot North,Parking,Parking,"Access From W Grimes Lane, Bloomington, In",39.151951,-86.53582,POINT (-86.535824994917 39.151957604929)
PRK012,Bloomington Rail Trail Parking Lot,Parking,Parking Lot,"298 W Country Club Drive, Bloomington, In 47403",39.135752,-86.535221,POINT (-86.53522776286 39.135758699026)
PRK013,Morton Street Parking Garage,Parking,Parking Garage,"220 N Morton Street, Bloomington, In",39.16806,-86.535575,POINT (-86.535580190231 39.16806739673)
PRK014,4th and Dunn Parking Lot,Parking,Surface Pay Lot,"S Dunn Street Between Kirkwood Avenue And 4Th Street, Bloomington, In",39.165825,-86.52863,POINT (-86.52863542993 39.165832610794)
PRK015,Clear Creek Trail Parking Lot North,Parking,Parking Lot,"Clear Creek Trail, Bloomington, In 47403",39.136252,-86.561037,POINT (-86.561044082236 39.136258873059)
PRK016,7th and Walnut Street Parking Garage,Parking,Parking Garage,"318 N Walnut Street, Bloomington, In",39.169152,-86.533133,POINT (-86.533138044293 39.169159604683)
PRK017,Showers South Parking Lot,Parking,Surface Permit Lot,"City Employee Parking Lot South Of Showers Building, Bloomington, In",39.169098,-86.536872,POINT (-86.536877148455 39.169105814358)
PRK018,Upper Cascades Park Parking Lot,Parking,Parking Lot,"514 W Club House Drive, Bloomington, In 47404",39.20246,-86.539529,POINT (-86.539537024146 39.202465678012)
PRK019,4th Street Parking Garage,Parking,Parking Garage,"105 W 4Th Street, Bloomington, In",39.165258,-86.534101,POINT (-86.534106531288 39.1652654847)
PRK020,Clear Creek Trail Parking Lot Central,Parking,Parking Lot,"1498 W That Road, Bloomington, In 47403",39.115158,-86.549484,POINT (-86.549491880166 39.115164436523)
PRK021,Carlisle Parking Lot,Parking,Parking,"Title 15 Lot 23, Commonly Know As Carlisle Lot, Bloomington, In",39.152773,-86.522438,POINT (-86.522443568047 39.152780789759)
